NORAD_CAT_ID,OBJECT_NAME,OBJECT_TYPE,EPOCH,MEAN_MOTION,ECCENTRICITY,INCLINATION,RA_OF_ASC_NODE,ARG_OF_PERICENTER,MEAN_ANOMALY,BSTAR,MEAN_MOTION_DOT,MEAN_MOTION_DDOT,TLE_LINE0,TLE_LINE1,TLE_LINE2,SEMIMAJOR_AXIS,PERIOD,APOGEE,PERIGEE,DECAYED
50157.0,STARLINK-3313,PAYLOAD,2023-12-15 05:27:48,15.08818595,0.0001828,53.2177,319.8728,93.7582,266.3619,0.00035997,5.442e-05,0.0,0 STARLINK-3313,1 50157U 21125B   23349.22764788  .00005442  00000-0  35997-3 0  9995,2 50157  53.2177 319.8728 0001828  93.7582 266.3619 15.08818595110269,6917.946,95.439,541.075,538.546,0.0
50157.0,STARLINK-3313,PAYLOAD,2023-12-16 05:18:36,15.08834302,0.0001644,53.2177,315.4138,85.0683,275.0496,1.2378e-05,-9.1e-07,0.0,0 STARLINK-3313,1 50157U 21125B   23350.22125500 -.00000091  00000-0  12378-4 0  9995,2 50157  53.2177 315.4138 0001644  85.0683 275.0496 15.08834302113546,6917.898,95.438,540.9,538.626,0.0
50157.0,STARLINK-3313,PAYLOAD,2023-12-17 03:33:59,15.08847064,0.0001667,53.2178,311.2493,83.6038,276.5144,0.00010083,1.317e-05,0.0,0 STARLINK-3313,1 50157U 21125B   23351.14860629  .00001317  00000-0  10083-3 0  9996,2 50157  53.2178 311.2493 0001667  83.6038 276.5144 15.08847064110551,6917.859,95.437,540.877,538.571,0.0
50157.0,STARLINK-3313,PAYLOAD,2023-12-17 05:09:22,15.08848826,0.000169,53.2178,310.952,81.8677,278.2507,0.00011925,1.611e-05,0.0,0 STARLINK-3313,1 50157U 21125B   23351.21484531  .00001611  00000-0  11925-3 0  9991,2 50157  53.2178 310.9520 0001690  81.8677 278.2507 15.08848826113690,6917.853,95.437,540.888,538.549,0.0
50157.0,STARLINK-3313,PAYLOAD,2023-12-18 03:24:46,15.08853344,0.0001548,53.2161,306.7958,82.3693,277.7475,0.00031261,4.692e-05,0.0,0 STARLINK-3313,1 50157U 21125B   23352.14220512  .00004692  00000-0  31261-3 0  9998,2 50157  53.2161 306.7958 0001548  82.3693 277.7475 15.08853344113831,6917.84,95.437,540.775,538.634,0.0
50157.0,STARLINK-3313,PAYLOAD,2023-12-19 03:15:34,15.08836091,0.0001478,53.2174,302.3279,85.6821,274.434,-5.6601e-05,-1.189e-05,0.0,0 STARLINK-3313,1 50157U 21125B   23353.13581473 -.00001189  00000-0 -56601-4 0  9990,2 50157  53.2174 302.3279 0001478  85.6821 274.4340 15.08836091110858,6917.892,95.438,540.78,538.735,0.0
50157.0,STARLINK-3313,PAYLOAD,2023-12-19 08:01:43,15.0884227,0.0001384,53.2162,301.4391,92.5203,267.5948,3.2213e-05,2.25e-06,0.0,0 STARLINK-3313,1 50157U 21125B   23353.33453174  .00000225  00000-0  32213-4 0  9999,2 50157  53.2162 301.4391 0001384  92.5203 267.5948 15.08842270114012,6917.873,95.437,540.696,538.781,0.0
50157.0,STARLINK-3313,PAYLOAD,2023-12-20 03:06:20,15.08850169,0.0001549,53.217,297.8712,81.3668,278.7499,1.2361e-05,-9.1e-07,0.0,0 STARLINK-3313,1 50157U 21125B   23354.12940749 -.00000091  00000-0  12361-4 0  9990,2 50157  53.2170 297.8712 0001549  81.3668 278.7499 15.08850169111007,6917.849,95.437,540.786,538.643,0.0
50157.0,STARLINK-3313,PAYLOAD,2023-12-21 02:57:07,15.08850194,0.0001483,53.2162,293.4102,109.2207,250.8946,0.00025101,3.71e-05,0.0,0 STARLINK-3313,1 50157U 21125B   23355.12300854  .00003710  00000-0  25101-3 0  9993,2 50157  53.2162 293.4102 0001483 109.2207 250.8946 15.08850194111151,6917.849,95.437,540.74,538.688,0.0
50157.0,STARLINK-3313,PAYLOAD,2023-12-22 02:47:55,15.08837175,0.0001388,53.2161,288.9493,96.2859,263.8292,-5.5943e-05,-1.178e-05,0.0,0 STARLINK-3313,1 50157U 21125B   23356.11661634 -.00001178  00000-0 -55943-4 0  9995,2 50157  53.2161 288.9493 0001388  96.2859 263.8292 15.08837175111303,6917.889,95.438,540.714,538.794,0.0
50157.0,STARLINK-3313,PAYLOAD,2023-12-23 04:14:05,15.08849842,0.0001428,53.2163,284.1903,95.3347,264.7808,0.00021173,3.084e-05,0.0,0 STARLINK-3313,1 50157U 21125B   23357.17645203  .00003084  00000-0  21173-3 0  9999,2 50157  53.2163 284.1903 0001428  95.3347 264.7808 15.08849842111460,6917.85,95.437,540.703,538.727,0.0
50157.0,STARLINK-3313,PAYLOAD,2023-12-24 04:04:52,15.08849518,0.0001605,53.2168,279.7284,91.073,269.0446,0.00028958,4.325e-05,0.0,0 STARLINK-3313,1 50157U 21125B   23358.17005530  .00004325  00000-0  28958-3 0  9990,2 50157  53.2168 279.7284 0001605  91.0730 269.0446 15.08849518111616,6917.851,95.437,540.827,538.606,0.0
50157.0,STARLINK-3313,PAYLOAD,2023-12-25 02:20:16,15.08850955,0.0001563,53.2173,275.5673,80.3189,279.7979,6.7445e-05,7.86e-06,0.0,0 STARLINK-3313,1 50157U 21125B   23359.09741436  .00000786  00000-0  67445-4 0  9996,2 50157  53.2173 275.5673 0001563  80.3189 279.7979 15.08850955111751,6917.847,95.437,540.793,538.631,0.0
50157.0,STARLINK-3313,PAYLOAD,2023-12-26 03:46:27,15.08843926,0.0001633,53.2178,270.8043,87.2959,272.822,2.2409e-06,-2.52e-06,0.0,0 STARLINK-3313,1 50157U 21125B   23360.15726123 -.00000252  00000-0  22409-5 0  9992,2 50157  53.2178 270.8043 0001633  87.2959 272.8220 15.08843926111915,6917.868,95.437,540.863,538.604,0.0
50157.0,STARLINK-3313,PAYLOAD,2023-12-26 22:51:04,15.08849294,0.0001621,53.2179,267.2368,102.7336,257.3837,3.7365e-05,3.07e-06,0.0,0 STARLINK-3313,1 50157U 21125B   23360.95213674  .00000307  00000-0  37365-4 0  9998,2 50157  53.2179 267.2368 0001621 102.7336 257.3837 15.08849294115162,6917.852,95.437,540.838,538.596,0.0
50157.0,STARLINK-3313,PAYLOAD,2023-12-27 00:26:27,15.08850527,0.0001626,53.2169,266.9378,81.2842,278.8334,8.2724e-05,1.029e-05,0.0,0 STARLINK-3313,1 50157U 21125B   23361.01837572  .00001029  00000-0  82724-4 0  9996,2 50157  53.2169 266.9378 0001626  81.2842 278.8334 15.08850527115178,6917.848,95.437,540.838,538.588,0.0
50157.0,STARLINK-3313,PAYLOAD,2023-12-27 17:55:42,15.08839668,0.0001563,53.2159,263.6694,102.0006,258.1162,8.0099e-05,9.87e-06,0.0,0 STARLINK-3313,1 50157U 21125B   23361.74702369  .00000987  00000-0  80099-4 0  9996,2 50157  53.2159 263.6694 0001563 102.0006 258.1162 15.08839668112154,6917.881,95.438,540.828,538.665,0.0
50157.0,STARLINK-3313,PAYLOAD,2023-12-27 22:41:52,15.08840457,0.0001914,53.2177,262.7782,119.6598,240.4585,0.00010663,1.409e-05,0.0,0 STARLINK-3313,1 50157U 21125B   23361.94574181  .00001409  00000-0  10663-3 0  9996,2 50157  53.2177 262.7782 0001914 119.6598 240.4585 15.08840457115314,6917.879,95.438,541.068,538.42,0.0
50157.0,STARLINK-3313,PAYLOAD,2023-12-28 22:32:39,15.08844156,0.0001666,53.2168,258.3196,121.827,238.2884,-2.8027e-05,-7.34e-06,0.0,0 STARLINK-3313,1 50157U 21125B   23362.93934272 -.00000734  00000-0 -28027-4 0  9993,2 50157  53.2168 258.3196 0001666 121.8270 238.2884 15.08844156115463,6917.868,95.437,540.885,538.58,0.0
50157.0,STARLINK-3313,PAYLOAD,2023-12-29 03:18:48,15.08845153,0.0001613,53.2159,257.4262,118.9833,241.1321,-2.8281e-05,-7.38e-06,0.0,0 STARLINK-3313,1 50157U 21125B   23363.13806145 -.00000738  00000-0 -28281-4 0  9999,2 50157  53.2159 257.4262 0001613 118.9833 241.1321 15.08845153112364,6917.865,95.437,540.845,538.614,0.0
50157.0,STARLINK-3313,PAYLOAD,2023-12-29 22:23:26,15.08836982,0.0001395,53.2161,253.8574,106.9001,253.2144,5.5258e-05,5.92e-06,0.0,0 STARLINK-3313,1 50157U 21125B   23363.93294646  .00000592  00000-0  55258-4 0  9994,2 50157  53.2161 253.8574 0001395 106.9001 253.2144 15.08836982115612,6917.89,95.438,540.72,538.79,0.0
50157.0,STARLINK-3313,PAYLOAD,2023-12-30 22:14:13,15.08837488,0.0001299,53.2154,249.3966,92.1968,267.9173,6.5281e-05,7.51e-06,0.0,0 STARLINK-3313,1 50157U 21125B   23364.92654806  .00000751  00000-0  65281-4 0  9996,2 50157  53.2154 249.3966 0001299  92.1968 267.9173 15.08837488115762,6917.888,95.438,540.652,538.854,0.0
50157.0,STARLINK-3313,PAYLOAD,2023-12-30 23:49:36,15.08838618,0.0001298,53.2155,249.0994,89.2147,270.8994,7.0638e-05,8.36e-06,0.0,0 STARLINK-3313,1 50157U 21125B   23364.99278738  .00000836  00000-0  70638-4 0  9995,2 50157  53.2155 249.0994 0001298  89.2147 270.8994 15.08838618112640,6917.885,95.438,540.648,538.852,0.0
50157.0,STARLINK-3313,PAYLOAD,2023-12-31 22:05:00,15.08836866,0.0001317,53.2151,244.937,85.519,274.5953,6.6216e-05,7.66e-06,0.0,0 STARLINK-3313,1 50157U 21125B   23365.92015035  .00000766  00000-0  66216-4 0  9997,2 50157  53.2151 244.9370 0001317  85.5190 274.5953 15.08836866115919,6917.89,95.438,540.666,538.844,0.0
50157.0,STARLINK-3313,PAYLOAD,2024-01-01 01:15:47,15.08839522,0.0001347,53.2154,244.3438,87.5443,272.5703,8.5274e-05,1.069e-05,0.0,0 STARLINK-3313,1 50157U 21125B   24001.05262842  .00001069  00000-0  85274-4 0  9991,2 50157  53.2154 244.3438 0001347  87.5443 272.5703 15.08839522112805,6917.882,95.438,540.679,538.815,0.0
50157.0,STARLINK-3313,PAYLOAD,2024-01-01 21:55:47,15.08846836,0.0001417,53.2151,240.4795,83.4955,276.6199,0.00011281,1.508e-05,0.0,0 STARLINK-3313,1 50157U 21125B   24001.91374272  .00001508  00000-0  11281-3 0  9991,2 50157  53.2151 240.4795 0001417  83.4955 276.6199 15.08846836116068,6917.859,95.437,540.705,538.744,0.0
50157.0,STARLINK-3313,PAYLOAD,2024-01-02 01:06:33,15.08850704,0.0001468,53.2156,239.8831,84.7059,275.41,0.00014674,2.049e-05,0.0,0 STARLINK-3313,1 50157U 21125B   24002.04621894  .00002049  00000-0  14674-3 0  9991,2 50157  53.2156 239.8831 0001468  84.7059 275.4100 15.08850704112953,6917.848,95.437,540.728,538.697,0.0
50157.0,STARLINK-3313,PAYLOAD,2024-01-02 20:11:11,15.08842419,0.0001478,53.2159,236.3128,89.1975,270.9186,4.085e-05,3.62e-06,0.0,0 STARLINK-3313,1 50157U 21125B   24002.84110488  .00000362  00000-0  40850-4 0  9993,2 50157  53.2159 236.3128 0001478  89.1975 270.9186 15.08842419113076,6917.873,95.437,540.76,538.716,0.0
50157.0,STARLINK-3313,PAYLOAD,2024-01-02 21:46:34,15.08843224,0.0001497,53.2158,236.0156,88.1267,271.9897,4.6368e-05,4.5e-06,0.0,0 STARLINK-3313,1 50157U 21125B   24002.90734382  .00000450  00000-0  46368-4 0  9993,2 50157  53.2158 236.0156 0001497  88.1267 271.9897 15.08843224116211,6917.871,95.437,540.771,538.7,0.0
50157.0,STARLINK-3313,PAYLOAD,2024-01-03 21:37:21,15.08841912,0.0001467,53.2154,231.5547,95.5273,264.5887,-4.6606e-05,-1.03e-05,0.0,0 STARLINK-3313,1 50157U 21125B   24003.90094530 -.00001030  00000-0 -46606-4 0  9990,2 50157  53.2154 231.5547 0001467  95.5273 264.5887 15.08841912116362,6917.875,95.437,540.754,538.725,0.0
